[{"OBJECT_NAME":"AEROCUBE 6A","OBJECT_ID":"2014-033AM","EPOCH":"2026-03-09T22:20:23.815680","MEAN_MOTION":14.96848607,"ECCENTRICITY":0.00387302,"INCLINATION":97.7128,"RA_OF_ASC_NODE":237.0691,"ARG_OF_PERICENTER":349.0559,"MEAN_ANOMALY":10.9816,"EPHEMERIS_TYPE":0,"CLASSIFICATION_TYPE":"U","NORAD_CAT_ID":40045,"ELEMENT_SET_NO":999,"REV_AT_EPOCH":63176,"BSTAR":0.00067890448,"MEAN_MOTION_DOT":7.845e-5,"MEAN_MOTION_DDOT":0},{"OBJECT_NAME":"STARLINK-5679","OBJECT_ID":"2023-015U","EPOCH":"2026-03-09T10:05:42.940032","MEAN_MOTION":15.02531061,"ECCENTRICITY":8.123e-5,"INCLINATION":43.0019,"RA_OF_ASC_NODE":327.445,"ARG_OF_PERICENTER":280.2917,"MEAN_ANOMALY":79.7834,"EPHEMERIS_TYPE":0,"CLASSIFICATION_TYPE":"U","NORAD_CAT_ID":55467,"ELEMENT_SET_NO":999,"REV_AT_EPOCH":17071,"BSTAR":1.4215509e-5,"MEAN_MOTION_DOT":-1.1e-7,"MEAN_MOTION_DDOT":0}]
